COSMOS 1408 DEB         
1 50032U 82092RU  26201.90929935  .00003163  00000+0  59517-4 0  9991
2 50032  82.5619 192.4086 0016765 128.2731 232.0030 15.47933284260073
COSMOS 1408 DEB         
1 50058U 82092SW  26201.42137268  .00053637  00000+0  22114-3 0  9999
2 50058  82.6059 195.9765 0005774  13.1571 346.9849 15.85687975262591
COSMOS 1408 DEB         
1 50621U 82092ALR 26201.01224534  .00029405  00000+0  22577-3 0  9992
2 50621  82.5631 203.3229 0020673  62.2717 298.0639 15.71590468256775
